0 METEOR 3-3
1 20305U 89086A   13283.05322291  .00000652  00000-0  19946-2 0  6960
2 20305 082.5507 071.6100 0006080 340.5356 157.0736 13.04581149142725
0 METEOR 3-3
1 20305U 89086A   13285.96764338  .00000291  00000-0  86783-3 0  6989
2 20305 082.5519 069.5942 0005971 332.8021 165.2421 13.04587345143108
0 METEOR 3-3
1 20305U 89086A   13287.48164837  .00000090  00000-0  24220-3 0  6992
2 20305 082.5524 068.5472 0005918 328.5012 076.3803 13.04589738143300
0 METEOR 3-3
1 20305U 89086A   13288.48241766 -.00000030  00000-0 -12995-3 0  7005
2 20305 082.5527 067.8552 0005935 325.2695 097.2942 13.04590987143432
0 METEOR 3-3
1 20305U 89086A   13289.79823457 -.00000179  00000-0 -59411-3 0  7012
2 20305 082.5529 066.9455 0005932 321.2759 157.8328 13.04592137143609
0 METEOR 3-3
1 20305U 89086A   13291.02902001 -.00000318  00000-0 -10278-2 0  7027
2 20305 082.5530 066.0946 0005881 317.8669 178.6473 13.04592911143760
0 METEOR 3-3
1 20305U 89086A   13292.46460832 -.00000471  00000-0 -15028-2 0  7036
2 20305 082.5529 065.1022 0005850 313.6743 081.6093 13.04593279143956
0 METEOR 3-3
1 20305U 89086A   13293.87416812 -.00000616  00000-0 -19545-2 0  7041
2 20305 082.5527 064.1278 0005828 309.4483 222.4260 13.04593011144131
0 METEOR 3-3
1 20305U 89086A   13295.00223220 -.00000718  00000-0 -22717-2 0  7056
2 20305 082.5525 063.3479 0005797 306.1708 120.9292 13.04592477144280
0 METEOR 3-3
1 20305U 89086A   13296.01385594 -.00000893  00000-0 -28184-2 0  7060
2 20305 082.5519 062.6483 0005800 301.5565 194.1820 13.04592555144417
